ORBCOMM FM20            
1 25416U 98046D   25250.97272246  .00001033  00000+0  38996-3 0  9992
2 25416  44.9937 149.1791 0002135 351.9288   8.1525 14.37356811416174
ORBCOMM FM16            
1 25417U 98046E   25250.93879116  .00001567  00000+0  54751-3 0  9997
2 25417  44.9930 139.8100 0005713 358.7507   1.3326 14.39110621416175
ORBCOMM FM15            
1 25418U 98046F   25250.86609580  .00001367  00000+0  48700-3 0  9991
2 25418  44.9958 145.5494 0005398 357.1047   2.9769 14.38753736416152
ORBCOMM FM14            
1 25419U 98046G   25250.86282246  .00001405  00000+0  49558-3 0  9993
2 25419  44.9946 143.5609 0004192 353.8201   6.2596 14.39129418416129
ORBCOMM FM13            
1 25420U 98046H   25250.91059063  .00001324  00000+0  48185-3 0  9995
2 25420  44.9968 152.1245 0006356 338.0381  22.0194 14.37844114415141
ORBCOMM FM21            
1 25475U 98053A   25250.65812340  .00001237  00000+0  45621-3 0  9994
2 25475  45.0073 238.9012 0003818 285.3031  74.7395 14.37493230409117
ORBCOMM FM22            
1 25476U 98053B   25250.63447989  .00001527  00000+0  54050-3 0  9994
2 25476  45.0055 233.1906 0005607 285.5616  74.4613 14.38574723409147
ORBCOMM FM23            
1 25477U 98053C   25250.37002131  .00001347  00000+0  49070-3 0  9998
2 25477  45.0072 242.2695 0004813 280.1722  79.8584 14.37692972409221
